{
  "type": "FeatureCollection",
  "features": [
    {
      "type": "Feature",
      "properties": {
        "norad_id": 66635,
        "name": "STARLINK-35955",
        "group": "last-30-days",
        "lat": 47.400372865246474,
        "lon": -20.651504210381674,
        "alt_km": 339.7463283627076,
        "timestamp": "2025-12-07T05:38:08.685794+00:00",
        "meta_object_name": "STARLINK-35955",
        "meta_object_id": "2025-271U",
        "meta_epoch": "2025-12-06T14:00:01.999872",
        "meta_mean_motion": 15.74163104,
        "meta_eccentricity": 0.00011386,
        "meta_inclination": 53.1574,
        "meta_ra_of_asc_node": 217.211,
        "meta_arg_of_pericenter": 105.3114,
        "meta_mean_anomaly": 273.6608,
        "meta_ephemeris_type": 0,
        "meta_classification_type": "U",
        "meta_norad_cat_id": 66635,
        "meta_element_set_no": 999,
        "meta_rev_at_epoch": 325,
        "meta_bstar": 0.00027463434,
        "meta_mean_motion_dot": 0.00039736,
        "meta_mean_motion_ddot": 0,
        "tle_line1": "1 66635U 25271U   25340.58335648  .00039736  00000+0  27463-3 0  9991",
        "tle_line2": "2 66635  53.1574 217.2110 0001138 105.3114 273.6608 15.74163104  3259"
      },
      "geometry": {
        "type": "Point",
        "coordinates": [
          -20.651504210381674,
          47.400372865246474
        ]
      }
    },
    {
      "type": "Feature",
      "properties": {
        "norad_id": 66636,
        "name": "STARLINK-35968",
        "group": "last-30-days",
        "lat": 46.48946180388914,
        "lon": -18.1975124322013,
        "alt_km": 339.9506433605484,
        "timestamp": "2025-12-07T05:38:08.685804+00:00",
        "meta_object_name": "STARLINK-35968",
        "meta_object_id": "2025-271V",
        "meta_epoch": "2025-12-06T14:00:01.999872",
        "meta_mean_motion": 15.74194736,
        "meta_eccentricity": 0.00011269,
        "meta_inclination": 53.1574,
        "meta_ra_of_asc_node": 217.2068,
        "meta_arg_of_pericenter": 119.4532,
        "meta_mean_anomaly": 261.418,
        "meta_ephemeris_type": 0,
        "meta_classification_type": "U",
        "meta_norad_cat_id": 66636,
        "meta_element_set_no": 999,
        "meta_rev_at_epoch": 325,
        "meta_bstar": -1.1497239e-05,
        "meta_mean_motion_dot": -2.313e-05,
        "meta_mean_motion_ddot": 0,
        "tle_line1": "1 66636U 25271V   25340.58335648 -.00002313  00000+0 -11497-4 0  9996",
        "tle_line2": "2 66636  53.1574 217.2068 0001126 119.4532 261.4180 15.74194736  3254"
      },
      "geometry": {
        "type": "Point",
        "coordinates": [
          -18.1975124322013,
          46.48946180388914
        ]
      }
    },
    {
      "type": "Feature",
      "properties": {
        "norad_id": 66637,
        "name": "STARLINK-35953",
        "group": "last-30-days",
        "lat": 45.51217692116178,
        "lon": -15.789854688884747,
        "alt_km": 340.10113707614255,
        "timestamp": "2025-12-07T05:38:08.685814+00:00",
        "meta_object_name": "STARLINK-35953",
        "meta_object_id": "2025-271W",
        "meta_epoch": "2025-12-06T14:00:01.999872",
        "meta_mean_motion": 15.741724,
        "meta_eccentricity": 9.993e-05,
        "meta_inclination": 53.1573,
        "meta_ra_of_asc_node": 217.2031,
        "meta_arg_of_pericenter": 106.8107,
        "meta_mean_anomaly": 275.9851,
        "meta_ephemeris_type": 0,
        "meta_classification_type": "U",
        "meta_norad_cat_id": 66637,
        "meta_element_set_no": 999,
        "meta_rev_at_epoch": 325,
        "meta_bstar": 0.00026073974,
        "meta_mean_motion_dot": 0.000377,
        "meta_mean_motion_ddot": 0,
        "tle_line1": "1 66637U 25271W   25340.58335648  .00037700  00000+0  26074-3 0  9999",
        "tle_line2": "2 66637  53.1573 217.2031 0000999 106.8107 275.9851 15.74172400  3258"
      },
      "geometry": {
        "type": "Point",
        "coordinates": [
          -15.789854688884747,
          45.51217692116178
        ]
      }
    },
    {
      "type": "Feature",
      "properties": {
        "norad_id": 66638,
        "name": "STARLINK-35972",
        "group": "last-30-days",
        "lat": 44.50131225673478,
        "lon": -13.499901199104727,
        "alt_km": 340.8779108707604,
        "timestamp": "2025-12-07T05:38:08.685828+00:00",
        "meta_object_name": "STARLINK-35972",
        "meta_object_id": "2025-271X",
        "meta_epoch": "2025-12-06T14:00:01.999872",
        "meta_mean_motion": 15.74229467,
        "meta_eccentricity": 2.655e-05,
        "meta_inclination": 53.1573,
        "meta_ra_of_asc_node": 217.1994,
        "meta_arg_of_pericenter": 56.3331,
        "meta_mean_anomaly": 328.3246,
        "meta_ephemeris_type": 0,
        "meta_classification_type": "U",
        "meta_norad_cat_id": 66638,
        "meta_element_set_no": 999,
        "meta_rev_at_epoch": 325,
        "meta_bstar": -0.00013600571,
        "meta_mean_motion_dot": -0.00020531,
        "meta_mean_motion_ddot": 0,
        "tle_line1": "1 66638U 25271X   25340.58335648 -.00020531  00000+0 -13601-3 0  9998",
        "tle_line2": "2 66638  53.1573 217.1994 0000265  56.3331 328.3246 15.74229467  3257"
      },
      "geometry": {
        "type": "Point",
        "coordinates": [
          -13.499901199104727,
          44.50131225673478
        ]
      }
    },
    {
      "type": "Feature",
      "properties": {
        "norad_id": 66639,
        "name": "STARLINK-35908",
        "group": "last-30-days",
        "lat": 43.48911816740975,
        "lon": -11.377205990278657,
        "alt_km": 340.8038529928608,
        "timestamp": "2025-12-07T05:38:08.685838+00:00",
        "meta_object_name": "STARLINK-35908",
        "meta_object_id": "2025-271Y",
        "meta_epoch": "2025-12-06T14:00:01.999872",
        "meta_mean_motion": 15.74192968,
        "meta_eccentricity": 0.00010713,
        "meta_inclination": 53.1573,
        "meta_ra_of_asc_node": 217.1948,
        "meta_arg_of_pericenter": 97.7988,
        "meta_mean_anomaly": 288.8825,
        "meta_ephemeris_type": 0,
        "meta_classification_type": "U",
        "meta_norad_cat_id": 66639,
        "meta_element_set_no": 999,
        "meta_rev_at_epoch": 325,
        "meta_bstar": -0.00061836534,
        "meta_mean_motion_dot": -0.00090242,
        "meta_mean_motion_ddot": 0,
        "tle_line1": "1 66639U 25271Y   25340.58335648 -.00090242  00000+0 -61837-3 0  9999",
        "tle_line2": "2 66639  53.1573 217.1948 0001071  97.7988 288.8825 15.74192968  3258"
      },
      "geometry": {
        "type": "Point",
        "coordinates": [
          -11.377205990278657,
          43.48911816740975
        ]
      }
    },
    {
      "type": "Feature",
      "properties": {
        "norad_id": 66640,
        "name": "STARLINK-35921",
        "group": "last-30-days",
        "lat": 42.33583427910161,
        "lon": -9.131219406243671,
        "alt_km": 340.77682469806405,
        "timestamp": "2025-12-07T05:38:08.685848+00:00",
        "meta_object_name": "STARLINK-35921",
        "meta_object_id": "2025-271Z",
        "meta_epoch": "2025-12-06T14:00:01.999872",
        "meta_mean_motion": 15.74180151,
        "meta_eccentricity": 7.017e-05,
        "meta_inclination": 53.1573,
        "meta_ra_of_asc_node": 217.1915,
        "meta_arg_of_pericenter": 109.0279,
        "meta_mean_anomaly": 279.5039,
        "meta_ephemeris_type": 0,
        "meta_classification_type": "U",
        "meta_norad_cat_id": 66640,
        "meta_element_set_no": 999,
        "meta_rev_at_epoch": 325,
        "meta_bstar": 0.0002326617,
        "meta_mean_motion_dot": 0.00033567,
        "meta_mean_motion_ddot": 0,
        "tle_line1": "1 66640U 25271Z   25340.58335648  .00033567  00000+0  23266-3 0  9990",
        "tle_line2": "2 66640  53.1573 217.1915 0000701 109.0279 279.5039 15.74180151  3258"
      },
      "geometry": {
        "type": "Point",
        "coordinates": [
          -9.131219406243671,
          42.33583427910161
        ]
      }
    },
    {
      "type": "Feature",
      "properties": {
        "norad_id": 66641,
        "name": "STARLINK-35923",
        "group": "last-30-days",
        "lat": 37.58406249414543,
        "lon": -1.3061349427155065,
        "alt_km": 341.7459913698476,
        "timestamp": "2025-12-07T05:38:08.685858+00:00",
        "meta_object_name": "STARLINK-35923",
        "meta_object_id": "2025-271AA",
        "meta_epoch": "2025-12-06T14:00:01.999872",
        "meta_mean_motion": 15.74168756,
        "meta_eccentricity": 5.377e-05,
        "meta_inclination": 53.1572,
        "meta_ra_of_asc_node": 217.1746,
        "meta_arg_of_pericenter": 95.3509,
        "meta_mean_anomaly": 300.8672,
        "meta_ephemeris_type": 0,
        "meta_classification_type": "U",
        "meta_norad_cat_id": 66641,
        "meta_element_set_no": 999,
        "meta_rev_at_epoch": 325,
        "meta_bstar": 0.00016390661,
        "meta_mean_motion_dot": 0.00023421,
        "meta_mean_motion_ddot": 0,
        "tle_line1": "1 66641U 25271AA  25340.58335648  .00023421  00000+0  16391-3 0  9990",
        "tle_line2": "2 66641  53.1572 217.1746 0000537  95.3509 300.8672 15.74168756  3258"
      },
      "geometry": {
        "type": "Point",
        "coordinates": [
          -1.3061349427155065,
          37.58406249414543
        ]
      }
    }
  ]
}